CCSDS_OEM_VERS = 1.0
CREATION_DATE  = 2017-05-11T11:38:39
ORIGINATOR     = GMAT USER

META_START
OBJECT_NAME          = MOPSSat_alt_35785_km_RAAN_180_103
OBJECT_ID            = SatId
CENTER_NAME          = Earth
REF_FRAME            = EME2000
TIME_SYSTEM          = UTC
START_TIME           = 2017-01-01T00:00:00.000
USEABLE_START_TIME   = 2017-01-01T00:00:00.000
USEABLE_STOP_TIME    = 2017-01-02T00:00:00.000
STOP_TIME            = 2017-01-02T00:00:00.000
INTERPOLATION        = Lagrange
INTERPOLATION_DEGREE = 7 
META_STOP


                                                                                   

2017-01-01T09:55:50.000   4.146514743769982e+04  -1.957676314713181e+04   1.711291023737003e+03   1.323680833577111e+00   2.474070650480850e+00  -2.165506635330237e-01
2017-01-01T09:56:00.000   4.147837569162357e+04  -1.955201840456276e+04   1.709125163999952e+03   1.321969906265428e+00   2.474877721493311e+00  -2.166212714597243e-01
2017-01-01T09:56:10.000   4.149158683419540e+04  -1.952726559691010e+04   1.706958598676198e+03   1.320258581643401e+00   2.475683701700440e+00  -2.166917838930970e-01
2017-01-01T09:56:20.000   4.150478086150587e+04  -1.950250473496816e+04   1.704791328710720e+03   1.318546860295017e+00   2.476488591048250e+00  -2.167622008283938e-01
2017-01-01T09:56:30.000   4.151795776965026e+04  -1.947773582953387e+04   1.702623355048726e+03   1.316834742804207e+00   2.477292389482840e+00  -2.168325222608735e-01
2017-01-01T09:56:40.000   4.153111755472403e+04  -1.945295889141577e+04   1.700454678636441e+03   1.315122229755469e+00   2.478095096950107e+00  -2.169027481857777e-01
2017-01-01T09:56:50.000   4.154426021280862e+04  -1.942817393145812e+04   1.698285300423212e+03   1.313409321735547e+00   2.478896713394881e+00  -2.169728785982543e-01
2017-01-01T09:57:00.000   4.155738573996221e+04  -1.940338096056142e+04   1.696115221363314e+03   1.311696019334834e+00   2.479697238760363e+00  -2.170429134933095e-01
2017-01-01T09:57:10.000   4.157049413225781e+04  -1.937857998960909e+04   1.693944442409526e+03   1.309982323142319e+00   2.480496672990453e+00  -2.171128528660095e-01
2017-01-01T09:57:20.000   4.158358538561223e+04  -1.935377102979520e+04   1.691772964541816e+03   1.308268233768203e+00   2.481295016019313e+00  -2.171826967105695e-01
2017-01-01T09:57:30.000   4.159665949599370e+04  -1.932895409222762e+04   1.689600788732610e+03   1.306553751816504e+00   2.482092267784033e+00  -2.172524450214605e-01
2017-01-01T09:57:40.000   4.160971645934448e+04  -1.930412918807546e+04   1.687427915959691e+03   1.304838877895240e+00   2.482888428219908e+00  -2.173220977929968e-01
2017-01-01T09:57:50.000   4.162275627188139e+04  -1.927929632799814e+04   1.685254347156236e+03   1.303123612576987e+00   2.483683497278768e+00  -2.173916550209385e-01
2017-01-01T09:58:00.000   4.163577892979587e+04  -1.925445552271487e+04   1.683080083260647e+03   1.301407956438218e+00   2.484477474910675e+00  -2.174611167008926e-01
2017-01-01T09:58:10.000   4.164878442932227e+04  -1.922960678287569e+04   1.680905125205278e+03   1.299691910050396e+00   2.485270361068109e+00  -2.175304828286759e-01
2017-01-01T09:58:20.000   4.166177276656700e+04  -1.920475011938222e+04   1.678729473944504e+03   1.297975474002149e+00   2.486062155695528e+00  -2.175997533994046e-01
2017-01-01T09:58:30.000   4.167474393763604e+04  -1.917988554314992e+04   1.676553130433906e+03   1.296258648882817e+00   2.486852858737156e+00  -2.176689284081739e-01
2017-01-01T09:58:40.000   4.168769793863404e+04  -1.915501306510753e+04   1.674376095630234e+03   1.294541435282441e+00   2.487642470136920e+00  -2.177380078500534e-01
2017-01-01T09:58:50.000   4.170063476554195e+04  -1.913013269643734e+04   1.672198370512429e+03   1.292823833808320e+00   2.488430989831004e+00  -2.178069917194350e-01
2017-01-01T09:59:00.000   4.171355441438269e+04  -1.910524444825212e+04   1.670019956053344e+03   1.291105845062724e+00   2.489218417757932e+00  -2.178758800109157e-01
2017-01-01T09:59:10.000   4.172645688115551e+04  -1.908034833172217e+04   1.667840853230871e+03   1.289387469651665e+00   2.490004753854587e+00  -2.179446727189483e-01
2017-01-01T09:59:20.000   4.173934216212750e+04  -1.905544435751361e+04   1.665661062978771e+03   1.287668708146127e+00   2.490789998073943e+00  -2.180133698393945e-01
2017-01-01T09:59:30.000   4.175221025354186e+04  -1.903053253635006e+04   1.663480586235840e+03   1.285949561120837e+00   2.491574150367322e+00  -2.180819713679704e-01
2017-01-01T09:59:40.000   4.176506115168428e+04  -1.900561287888579e+04   1.661299423934802e+03   1.284230029145503e+00   2.492357210688420e+00  -2.181504773006001e-01
2017-01-01T09:59:50.000   4.177789485271407e+04  -1.898068539602738e+04   1.659117577030466e+03   1.282510112807033e+00   2.493139178983014e+00  -2.182188876325154e-01
2017-01-01T10:00:00.000   4.179071135279024e+04  -1.895575009869521e+04   1.656935046478851e+03   1.280789812693057e+00   2.493920055196648e+00  -2.182872023589274e-01
2017-01-01T10:00:10.000   4.180351064807039e+04  -1.893080699782305e+04   1.654751833237142e+03   1.279069129391905e+00   2.494699839274572e+00  -2.183554214750212e-01
2017-01-01T10:00:20.000   4.181629273459008e+04  -1.890585610459884e+04   1.652567938284783e+03   1.277348063509202e+00   2.495478531154389e+00  -2.184235449753135e-01
2017-01-01T10:00:30.000   4.182905760842635e+04  -1.888089743014083e+04   1.650383362595105e+03   1.275626615645539e+00   2.496256130776014e+00  -2.184915728545229e-01
2017-01-01T10:00:40.000   4.184180526563172e+04  -1.885593098562737e+04   1.648198107146708e+03   1.273904786405424e+00   2.497032638077659e+00  -2.185595051072194e-01
2017-01-01T10:00:50.000   4.185453570252687e+04  -1.883095678172413e+04   1.646012172873316e+03   1.272182576357786e+00   2.497808053013653e+00  -2.186273417293824e-01
2017-01-01T10:01:00.000   4.186724891540704e+04  -1.880597482915833e+04   1.643825560714042e+03   1.270459986075573e+00   2.498582375536564e+00  -2.186950827168383e-01
2017-01-01T10:01:10.000   4.187994490061801e+04  -1.878098513857059e+04   1.641638271600417e+03   1.268737016125530e+00   2.499355605601828e+00  -2.187627280656632e-01
2017-01-01T10:01:20.000   4.189262365435145e+04  -1.875598772091301e+04   1.639450306491236e+03   1.267013667095674e+00   2.500127743155272e+00  -2.188302777710934e-01
2017-01-01T10:01:30.000   4.190528517281411e+04  -1.873098258712085e+04   1.637261666343821e+03   1.265289939572630e+00   2.500898788143431e+00  -2.188977318284271e-01
2017-01-01T10:01:40.000   4.191792945218877e+04  -1.870596974818814e+04   1.635072352120638e+03   1.263565834146855e+00   2.501668740511166e+00  -2.189650902328156e-01
2017-01-01T10:01:50.000   4.193055648865034e+04  -1.868094921513884e+04   1.632882364786773e+03   1.261841351410635e+00   2.502437600202641e+00  -2.190323529793501e-01
2017-01-01T10:02:00.000   4.194316627837197e+04  -1.865592099901236e+04   1.630691705308664e+03   1.260116491957103e+00   2.503205367161707e+00  -2.190995200630934e-01
2017-01-01T10:02:10.000   4.195575881754015e+04  -1.863088511083365e+04   1.628500374651485e+03   1.258391256378168e+00   2.503972041332806e+00  -2.191665914791608e-01
2017-01-01T10:02:20.000   4.196833410236274e+04  -1.860584156159962e+04   1.626308373777955e+03   1.256665645263579e+00   2.504737622661472e+00  -2.192335672227630e-01
2017-01-01T10:02:30.000   4.198089212908262e+04  -1.858079036224911e+04   1.624115703645710e+03   1.254939659198862e+00   2.505502111095153e+00  -2.193004472892778e-01
2017-01-01T10:02:40.000   4.199343289393996e+04  -1.855573152373921e+04   1.621922365213983e+03   1.253213298770578e+00   2.506265506580918e+00  -2.193672316740506e-01
2017-01-01T10:02:50.000   4.200595639333586e+04  -1.853066505671432e+04   1.619728359414640e+03   1.251486564543536e+00   2.507027809075411e+00  -2.194339203732639e-01
2017-01-01T10:03:00.000   4.201846262363363e+04  -1.850559097190706e+04   1.617533687187267e+03   1.249759457088397e+00   2.507789018532770e+00  -2.195005133828808e-01
2017-01-01T10:03:10.000   4.203095158123417e+04  -1.848050927998673e+04   1.615338349465913e+03   1.248031976971246e+00   2.508549134909195e+00  -2.195670106990456e-01
2017-01-01T10:03:20.000   4.204342326228377e+04  -1.845541999214581e+04   1.613142347230412e+03   1.246304124793977e+00   2.509308158145177e+00  -2.196334123165278e-01
2017-01-01T10:03:30.000   4.205587766296639e+04  -1.843032311951358e+04   1.610945681455072e+03   1.244575901153913e+00   2.510066088183286e+00  -2.196997182302788e-01
2017-01-01T10:03:40.000   4.206831477942808e+04  -1.840521867330736e+04   1.608748353121907e+03   1.242847306654224e+00   2.510822924963564e+00  -2.197659284350291e-01
2017-01-01T10:03:50.000   4.208073460797739e+04  -1.838010666443261e+04   1.606550363185630e+03   1.241118341876369e+00   2.511578668435734e+00  -2.198320429263560e-01
2017-01-01T10:04:00.000   4.209313714491978e+04  -1.835498710381273e+04   1.604351712602532e+03   1.239389007402828e+00   2.512333318549111e+00  -2.198980616998012e-01
2017-01-01T10:04:10.000   4.210552238659576e+04  -1.832986000231314e+04   1.602152402323822e+03   1.237659303811870e+00   2.513086875254924e+00  -2.199639847510738e-01
2017-01-01T10:04:20.000   4.211789032936499e+04  -1.830472537077025e+04   1.599952433298174e+03   1.235929231679550e+00   2.513839338505354e+00  -2.200298120759665e-01
2017-01-01T10:04:30.000   4.213024096960052e+04  -1.827958322000593e+04   1.597751806472992e+03   1.234198791580714e+00   2.514590708253176e+00  -2.200955436703234e-01
2017-01-01T10:04:40.000   4.214257430367381e+04  -1.825443356085768e+04   1.595550522797042e+03   1.232467984091057e+00   2.515340984450853e+00  -2.201611795299621e-01
2017-01-01T10:04:50.000   4.215489032794700e+04  -1.822927640419217e+04   1.593348583221647e+03   1.230736809788074e+00   2.516090167050062e+00  -2.202267196506305e-01
